[{"OBJECT_NAME":"STARLINK-32586","OBJECT_ID":"2024-210S","EPOCH":"2026-03-09T07:47:05.017632","MEAN_MOTION":15.27591735,"ECCENTRICITY":0.00027237,"INCLINATION":43.0023,"RA_OF_ASC_NODE":181.9245,"ARG_OF_PERICENTER":285.0175,"MEAN_ANOMALY":75.0375,"EPHEMERIS_TYPE":0,"CLASSIFICATION_TYPE":"U","NORAD_CAT_ID":61975,"ELEMENT_SET_NO":999,"REV_AT_EPOCH":7482,"BSTAR":0.0013300912,"MEAN_MOTION_DOT":0.00036536,"MEAN_MOTION_DDOT":0},{"OBJECT_NAME":"ALSAT-3B","OBJECT_ID":"2026-021A","EPOCH":"2026-03-09T21:47:36.363264","MEAN_MOTION":15.23965648,"ECCENTRICITY":0.00137736,"INCLINATION":97.4662,"RA_OF_ASC_NODE":143.2461,"ARG_OF_PERICENTER":131.2824,"MEAN_ANOMALY":228.9602,"EPHEMERIS_TYPE":0,"CLASSIFICATION_TYPE":"U","NORAD_CAT_ID":67646,"ELEMENT_SET_NO":999,"REV_AT_EPOCH":575,"BSTAR":0.00034138739,"MEAN_MOTION_DOT":8.212e-5,"MEAN_MOTION_DDOT":0}]
